[{"OBJECT_NAME":"STARLINK-36925","OBJECT_ID":"2026-041C","EPOCH":"2026-03-21T21:19:05.823840","MEAN_MOTION":15.75295816,"ECCENTRICITY":8.748e-5,"INCLINATION":53.1591,"RA_OF_ASC_NODE":1.3065,"ARG_OF_PERICENTER":145.9599,"MEAN_ANOMALY":214.1477,"EPHEMERIS_TYPE":0,"CLASSIFICATION_TYPE":"U","NORAD_CAT_ID":68042,"ELEMENT_SET_NO":999,"REV_AT_EPOCH":314,"BSTAR":0.0010237965,"MEAN_MOTION_DOT":0.00159688,"MEAN_MOTION_DDOT":0},{"OBJECT_NAME":"STARLINK-36902","OBJECT_ID":"2026-041D","EPOCH":"2026-03-21T22:09:58.389408","MEAN_MOTION":15.80978153,"ECCENTRICITY":0.00012194,"INCLINATION":53.1589,"RA_OF_ASC_NODE":0.8058,"ARG_OF_PERICENTER":122.2762,"MEAN_ANOMALY":237.8379,"EPHEMERIS_TYPE":0,"CLASSIFICATION_TYPE":"U","NORAD_CAT_ID":68043,"ELEMENT_SET_NO":999,"REV_AT_EPOCH":315,"BSTAR":0.0015754678,"MEAN_MOTION_DOT":0.00323756,"MEAN_MOTION_DDOT":0},{"OBJECT_NAME":"STARLINK-36966","OBJECT_ID":"2026-041E","EPOCH":"2026-03-21T22:43:56.492832","MEAN_MOTION":15.75224788,"ECCENTRICITY":0.00010052,"INCLINATION":53.1592,"RA_OF_ASC_NODE":0.9619,"ARG_OF_PERICENTER":105.2033,"MEAN_ANOMALY":254.9098,"EPHEMERIS_TYPE":0,"CLASSIFICATION_TYPE":"U","NORAD_CAT_ID":68044,"ELEMENT_SET_NO":999,"REV_AT_EPOCH":315,"BSTAR":0.00062689003,"MEAN_MOTION_DOT":0.00096497,"MEAN_MOTION_DDOT":0},{"OBJECT_NAME":"STARLINK-36864","OBJECT_ID":"2026-041F","EPOCH":"2026-03-21T18:09:23.506848","MEAN_MOTION":15.75330405,"ECCENTRICITY":0.00017442,"INCLINATION":53.1596,"RA_OF_ASC_NODE":1.9058,"ARG_OF_PERICENTER":162.5114,"MEAN_ANOMALY":197.5967,"EPHEMERIS_TYPE":0,"CLASSIFICATION_TYPE":"U","NORAD_CAT_ID":68045,"ELEMENT_SET_NO":999,"REV_AT_EPOCH":312,"BSTAR":0.0028038153,"MEAN_MOTION_DOT":0.00454891,"MEAN_MOTION_DDOT":0},{"OBJECT_NAME":"STARLINK-36321","OBJECT_ID":"2026-041G","EPOCH":"2026-03-21T23:37:06.335040","MEAN_MOTION":15.80267907,"ECCENTRICITY":0.00043538,"INCLINATION":53.159,"RA_OF_ASC_NODE":0.4705,"ARG_OF_PERICENTER":233.6628,"MEAN_ANOMALY":126.3993,"EPHEMERIS_TYPE":0,"CLASSIFICATION_TYPE":"U","NORAD_CAT_ID":68046,"ELEMENT_SET_NO":999,"REV_AT_EPOCH":316,"BSTAR":0.0032804087,"MEAN_MOTION_DOT":0.00681319,"MEAN_MOTION_DDOT":0},{"OBJECT_NAME":"STARLINK-36181","OBJECT_ID":"2026-041H","EPOCH":"2026-03-21T23:37:45.767136","MEAN_MOTION":15.8087453,"ECCENTRICITY":0.00010748,"INCLINATION":53.159,"RA_OF_ASC_NODE":0.4732,"ARG_OF_PERICENTER":95.2417,"MEAN_ANOMALY":264.8728,"EPHEMERIS_TYPE":0,"CLASSIFICATION_TYPE":"U","NORAD_CAT_ID":68047,"ELEMENT_SET_NO":999,"REV_AT_EPOCH":316,"BSTAR":0.0010084839,"MEAN_MOTION_DOT":0.00203107,"MEAN_MOTION_DDOT":0},{"OBJECT_NAME":"STARLINK-36318","OBJECT_ID":"2026-041J","EPOCH":"2026-03-21T22:37:24.395808","MEAN_MOTION":15.7519392,"ECCENTRICITY":0.00013194,"INCLINATION":53.1602,"RA_OF_ASC_NODE":0.9314,"ARG_OF_PERICENTER":42.9288,"MEAN_ANOMALY":317.1835,"EPHEMERIS_TYPE":0,"CLASSIFICATION_TYPE":"U","NORAD_CAT_ID":68048,"ELEMENT_SET_NO":999,"REV_AT_EPOCH":315,"BSTAR":0.00021979959,"MEAN_MOTION_DOT":0.00033119,"MEAN_MOTION_DDOT":0},{"OBJECT_NAME":"STARLINK-36885","OBJECT_ID":"2026-041K","EPOCH":"2026-03-21T22:36:55.870848","MEAN_MOTION":15.7521912,"ECCENTRICITY":9.606e-5,"INCLINATION":53.16,"RA_OF_ASC_NODE":0.9291,"ARG_OF_PERICENTER":88.8464,"MEAN_ANOMALY":271.2667,"EPHEMERIS_TYPE":0,"CLASSIFICATION_TYPE":"U","NORAD_CAT_ID":68049,"ELEMENT_SET_NO":999,"REV_AT_EPOCH":315,"BSTAR":0.00048434005,"MEAN_MOTION_DOT":0.00074192,"MEAN_MOTION_DDOT":0},{"OBJECT_NAME":"STARLINK-36945","OBJECT_ID":"2026-041L","EPOCH":"2026-03-21T23:34:31.535616","MEAN_MOTION":15.80986394,"ECCENTRICITY":8.491e-5,"INCLINATION":53.1589,"RA_OF_ASC_NODE":0.4574,"ARG_OF_PERICENTER":154.6975,"MEAN_ANOMALY":205.409,"EPHEMERIS_TYPE":0,"CLASSIFICATION_TYPE":"U","NORAD_CAT_ID":68050,"ELEMENT_SET_NO":999,"REV_AT_EPOCH":316,"BSTAR":0.0016559153,"MEAN_MOTION_DOT":0.00341156,"MEAN_MOTION_DDOT":0},{"OBJECT_NAME":"STARLINK-35911","OBJECT_ID":"2026-041M","EPOCH":"2026-03-21T23:32:22.042752","MEAN_MOTION":15.8098582,"ECCENTRICITY":0.00010618,"INCLINATION":53.1588,"RA_OF_ASC_NODE":0.4481,"ARG_OF_PERICENTER":103.2602,"MEAN_ANOMALY":256.8539,"EPHEMERIS_TYPE":0,"CLASSIFICATION_TYPE":"U","NORAD_CAT_ID":68051,"ELEMENT_SET_NO":999,"REV_AT_EPOCH":316,"BSTAR":0.0016694809,"MEAN_MOTION_DOT":0.00344061,"MEAN_MOTION_DDOT":0},{"OBJECT_NAME":"STARLINK-35808","OBJECT_ID":"2026-041N","EPOCH":"2026-03-21T22:00:00.999936","MEAN_MOTION":15.75245288,"ECCENTRICITY":0.00011511,"INCLINATION":53.1594,"RA_OF_ASC_NODE":0.7966,"ARG_OF_PERICENTER":95.6427,"MEAN_ANOMALY":245.7965,"EPHEMERIS_TYPE":0,"CLASSIFICATION_TYPE":"U","NORAD_CAT_ID":68052,"ELEMENT_SET_NO":999,"REV_AT_EPOCH":430,"BSTAR":-5.8875104e-5,"MEAN_MOTION_DOT":-9.656e-5,"MEAN_MOTION_DDOT":0},{"OBJECT_NAME":"STARLINK-36919","OBJECT_ID":"2026-041P","EPOCH":"2026-03-21T20:28:08.113152","MEAN_MOTION":15.80941391,"ECCENTRICITY":6.414e-5,"INCLINATION":53.1591,"RA_OF_ASC_NODE":1.0695,"ARG_OF_PERICENTER":113.0478,"MEAN_ANOMALY":247.0612,"EPHEMERIS_TYPE":0,"CLASSIFICATION_TYPE":"U","NORAD_CAT_ID":68053,"ELEMENT_SET_NO":999,"REV_AT_EPOCH":314,"BSTAR":0.0012463669,"MEAN_MOTION_DOT":0.00253452,"MEAN_MOTION_DDOT":0},{"OBJECT_NAME":"STARLINK-36924","OBJECT_ID":"2026-041Q","EPOCH":"2026-03-21T22:30:52.148448","MEAN_MOTION":15.75204184,"ECCENTRICITY":0.00013137,"INCLINATION":53.16,"RA_OF_ASC_NODE":0.9013,"ARG_OF_PERICENTER":41.4399,"MEAN_ANOMALY":318.6721,"EPHEMERIS_TYPE":0,"CLASSIFICATION_TYPE":"U","NORAD_CAT_ID":68054,"ELEMENT_SET_NO":999,"REV_AT_EPOCH":315,"BSTAR":0.00040535941,"MEAN_MOTION_DOT":0.00061858,"MEAN_MOTION_DDOT":0},{"OBJECT_NAME":"STARLINK-35998","OBJECT_ID":"2026-041R","EPOCH":"2026-03-21T21:58:46.756416","MEAN_MOTION":15.78652047,"ECCENTRICITY":3.647e-5,"INCLINATION":53.159,"RA_OF_ASC_NODE":0.7519,"ARG_OF_PERICENTER":85.1236,"MEAN_ANOMALY":274.9827,"EPHEMERIS_TYPE":0,"CLASSIFICATION_TYPE":"U","NORAD_CAT_ID":68055,"ELEMENT_SET_NO":999,"REV_AT_EPOCH":315,"BSTAR":-0.005761178,"MEAN_MOTION_DOT":-0.00923376,"MEAN_MOTION_DDOT":0},{"OBJECT_NAME":"STARLINK-36845","OBJECT_ID":"2026-041S","EPOCH":"2026-03-21T23:26:58.482528","MEAN_MOTION":15.80933141,"ECCENTRICITY":0.00010191,"INCLINATION":53.1589,"RA_OF_ASC_NODE":0.4214,"ARG_OF_PERICENTER":75.8294,"MEAN_ANOMALY":284.2842,"EPHEMERIS_TYPE":0,"CLASSIFICATION_TYPE":"U","NORAD_CAT_ID":68056,"ELEMENT_SET_NO":999,"REV_AT_EPOCH":316,"BSTAR":0.0013673583,"MEAN_MOTION_DOT":0.00278843,"MEAN_MOTION_DDOT":0},{"OBJECT_NAME":"STARLINK-36954","OBJECT_ID":"2026-041T","EPOCH":"2026-03-21T22:30:23.791968","MEAN_MOTION":15.75189021,"ECCENTRICITY":0.00011146,"INCLINATION":53.16,"RA_OF_ASC_NODE":0.8983,"ARG_OF_PERICENTER":61.5061,"MEAN_ANOMALY":298.6072,"EPHEMERIS_TYPE":0,"CLASSIFICATION_TYPE":"U","NORAD_CAT_ID":68057,"ELEMENT_SET_NO":999,"REV_AT_EPOCH":315,"BSTAR":3.4834707e-5,"MEAN_MOTION_DOT":4.692e-5,"MEAN_MOTION_DDOT":0}]
