STARLINK-36925          
1 68042U 26041C   26080.88826185  .00159688  00000+0  10238-2 0  9997
2 68042  53.1591   1.3065 0000874 145.9599 214.1477 15.75295816  3145
STARLINK-36902          
1 68043U 26041D   26080.92359247  .00323756  00000+0  15755-2 0  9991
2 68043  53.1589   0.8058 0001219 122.2762 237.8379 15.80978153  3155
STARLINK-36966          
1 68044U 26041E   26080.94718163  .00096497  00000+0  62689-3 0  9998
2 68044  53.1592   0.9619 0001005 105.2033 254.9098 15.75224788  3159
STARLINK-36864          
1 68045U 26041F   26080.75652207  .00454891  00000+0  28038-2 0  9999
2 68045  53.1596   1.9058 0001744 162.5114 197.5967 15.75330405  3126
STARLINK-36321          
1 68046U 26041G   26080.98410110  .00681319  00000+0  32804-2 0  9993
2 68046  53.1590   0.4705 0004353 233.6628 126.3993 15.80267907  3168
STARLINK-36181          
1 68047U 26041H   26080.98455749  .00203107  00000+0  10085-2 0  9993
2 68047  53.1590   0.4732 0001074  95.2417 264.8728 15.80874530  3164
STARLINK-36318          
1 68048U 26041J   26080.94264347  .00033119  00000+0  21980-3 0  9993
2 68048  53.1602   0.9314 0001319  42.9288 317.1835 15.75193920  3158
STARLINK-36885          
1 68049U 26041K   26080.94231332  .00074192  00000+0  48434-3 0  9991
2 68049  53.1600   0.9291 0000960  88.8464 271.2667 15.75219120  3151
STARLINK-36945          
1 68050U 26041L   26080.98230944  .00341156  00000+0  16559-2 0  9994
2 68050  53.1589   0.4574 0000849 154.6975 205.4090 15.80986394  3163
STARLINK-35911          
1 68051U 26041M   26080.98081068  .00344061  00000+0  16695-2 0  9995
2 68051  53.1588   0.4481 0001061 103.2602 256.8539 15.80985820  3165
STARLINK-35808          
1 68052U 26041N   26080.91667824 -.00009656  00000+0 -58875-4 0  9997
2 68052  53.1594   0.7966 0001151  95.6427 245.7965 15.75245288  4301
STARLINK-36919          
1 68053U 26041P   26080.85287168  .00253452  00000+0  12464-2 0  9995
2 68053  53.1591   1.0695 0000641 113.0478 247.0612 15.80941391  3145
STARLINK-36924          
1 68054U 26041Q   26080.93810357  .00061858  00000+0  40536-3 0  9996
2 68054  53.1600   0.9013 0001313  41.4399 318.6721 15.75204184  3155
STARLINK-35998          
1 68055U 26041R   26080.91581894 -.00923376  00000+0 -57612-2 0  9992
2 68055  53.1590   0.7519 0000364  85.1236 274.9827 15.78652047  3152
STARLINK-36845          
1 68056U 26041S   26080.97706577  .00278843  00000+0  13674-2 0  9996
2 68056  53.1589   0.4214 0001019  75.8294 284.2842 15.80933141  3160
STARLINK-36954          
1 68057U 26041T   26080.93777537  .00004692  00000+0  34835-4 0  9990
2 68057  53.1600   0.8983 0001114  61.5061 298.6072 15.75189021  3159
